{
  "type": "FeatureCollection",
  "features": [
    {
      "type": "Feature",
      "properties": {
        "norad_id": 40115,
        "name": "WORLDVIEW-3 (WV-3)",
        "group": "resource",
        "lat": 4.881178851615649,
        "lon": 55.05351976239587,
        "alt_km": 617.4708881584229,
        "timestamp": "2025-12-09T09:46:47.304139+00:00",
        "meta_object_name": "WORLDVIEW-3 (WV-3)",
        "meta_object_id": "2014-048A",
        "meta_epoch": "2025-12-09T04:54:28.190880",
        "meta_mean_motion": 14.85496864,
        "meta_eccentricity": 0.0004485,
        "meta_inclination": 97.8619,
        "meta_ra_of_asc_node": 55.5292,
        "meta_arg_of_pericenter": 196.9375,
        "meta_mean_anomaly": 163.1691,
        "meta_ephemeris_type": 0,
        "meta_classification_type": "U",
        "meta_norad_cat_id": 40115,
        "meta_element_set_no": 999,
        "meta_rev_at_epoch": 61371,
        "meta_bstar": 0.0002136,
        "meta_mean_motion_dot": 1.79e-05,
        "meta_mean_motion_ddot": 0,
        "tle_line1": "1 40115U 14048A   25343.20449295  .00001790  00000+0  21360-3 0  9991",
        "tle_line2": "2 40115  97.8619  55.5292 0004485 196.9375 163.1691 14.85496864613712"
      },
      "geometry": {
        "type": "Point",
        "coordinates": [
          55.05351976239587,
          4.881178851615649
        ]
      }
    },
    {
      "type": "Feature",
      "properties": {
        "norad_id": 40118,
        "name": "GAOFEN-2",
        "group": "resource",
        "lat": -60.240359487442,
        "lon": -151.7398680795451,
        "alt_km": 637.4714529219536,
        "timestamp": "2025-12-09T09:46:47.304150+00:00",
        "meta_object_name": "GAOFEN-2",
        "meta_object_id": "2014-049A",
        "meta_epoch": "2025-12-09T05:27:01.966176",
        "meta_mean_motion": 14.80598694,
        "meta_eccentricity": 0.0008429,
        "meta_inclination": 98.0386,
        "meta_ra_of_asc_node": 42.3894,
        "meta_arg_of_pericenter": 122.4657,
        "meta_mean_anomaly": 237.7371,
        "meta_ephemeris_type": 0,
        "meta_classification_type": "U",
        "meta_norad_cat_id": 40118,
        "meta_element_set_no": 999,
        "meta_rev_at_epoch": 61112,
        "meta_bstar": 0.00013662,
        "meta_mean_motion_dot": 9.95e-06,
        "meta_mean_motion_ddot": 0,
        "tle_line1": "1 40118U 14049A   25343.22710609  .00000995  00000+0  13662-3 0  9999",
        "tle_line2": "2 40118  98.0386  42.3894 0008429 122.4657 237.7371 14.80598694611125"
      },
      "geometry": {
        "type": "Point",
        "coordinates": [
          -151.7398680795451,
          -60.240359487442
        ]
      }
    },
    {
      "type": "Feature",
      "properties": {
        "norad_id": 40143,
        "name": "YAOGAN-21",
        "group": "resource",
        "lat": 48.61151214779642,
        "lon": 18.64586372537979,
        "alt_km": 483.822843208477,
        "timestamp": "2025-12-09T09:46:47.304160+00:00",
        "meta_object_name": "YAOGAN-21",
        "meta_object_id": "2014-053A",
        "meta_epoch": "2025-12-09T04:50:11.898240",
        "meta_mean_motion": 15.23611757,
        "meta_eccentricity": 0.0009918,
        "meta_inclination": 97.1756,
        "meta_ra_of_asc_node": 26.668,
        "meta_arg_of_pericenter": 52.2189,
        "meta_mean_anomaly": 307.9946,
        "meta_ephemeris_type": 0,
        "meta_classification_type": "U",
        "meta_norad_cat_id": 40143,
        "meta_element_set_no": 999,
        "meta_rev_at_epoch": 62600,
        "meta_bstar": 0.00034791,
        "meta_mean_motion_dot": 8.276e-05,
        "meta_mean_motion_ddot": 0,
        "tle_line1": "1 40143U 14053A   25343.20152660  .00008276  00000+0  34791-3 0  9993",
        "tle_line2": "2 40143  97.1756  26.6680 0009918  52.2189 307.9946 15.23611757626001"
      },
      "geometry": {
        "type": "Point",
        "coordinates": [
          18.64586372537979,
          48.61151214779642
        ]
      }
    },
    {
      "type": "Feature",
      "properties": {
        "norad_id": 40275,
        "name": "YAOGAN-22",
        "group": "resource",
        "lat": -35.91600646532177,
        "lon": -61.12281029779478,
        "alt_km": 1204.5100660644084,
        "timestamp": "2025-12-09T09:46:47.304171+00:00",
        "meta_object_name": "YAOGAN-22",
        "meta_object_id": "2014-063A",
        "meta_epoch": "2025-12-08T23:33:20.208960",
        "meta_mean_motion": 13.15522481,
        "meta_eccentricity": 0.000593,
        "meta_inclination": 100.742,
        "meta_ra_of_asc_node": 126.3479,
        "meta_arg_of_pericenter": 257.3638,
        "meta_mean_anomaly": 102.681,
        "meta_ephemeris_type": 0,
        "meta_classification_type": "U",
        "meta_norad_cat_id": 40275,
        "meta_element_set_no": 999,
        "meta_rev_at_epoch": 53480,
        "meta_bstar": 0.00011571,
        "meta_mean_motion_dot": -3e-08,
        "meta_mean_motion_ddot": 0,
        "tle_line1": "1 40275U 14063A   25342.98148390 -.00000003  00000+0  11571-3 0  9991",
        "tle_line2": "2 40275 100.7420 126.3479 0005930 257.3638 102.6810 13.15522481534807"
      },
      "geometry": {
        "type": "Point",
        "coordinates": [
          -61.12281029779478,
          -35.91600646532177
        ]
      }
    },
    {
      "type": "Feature",
      "properties": {
        "norad_id": 40298,
        "name": "ASNARO",
        "group": "resource",
        "lat": 32.1855105835982,
        "lon": -115.8948694806162,
        "alt_km": 502.337205171867,
        "timestamp": "2025-12-09T09:46:47.304182+00:00",
        "meta_object_name": "ASNARO",
        "meta_object_id": "2014-070A",
        "meta_epoch": "2025-12-09T04:23:29.725152",
        "meta_mean_motion": 15.19377378,
        "meta_eccentricity": 0.00054,
        "meta_inclination": 97.3651,
        "meta_ra_of_asc_node": 59.2166,
        "meta_arg_of_pericenter": 131.5612,
        "meta_mean_anomaly": 228.6086,
        "meta_ephemeris_type": 0,
        "meta_classification_type": "U",
        "meta_norad_cat_id": 40298,
        "meta_element_set_no": 999,
        "meta_rev_at_epoch": 61515,
        "meta_bstar": 0.0007024,
        "meta_mean_motion_dot": 0.00014815,
        "meta_mean_motion_ddot": 0,
        "tle_line1": "1 40298U 14070A   25343.18298293  .00014815  00000+0  70240-3 0  9998",
        "tle_line2": "2 40298  97.3651  59.2166 0005400 131.5612 228.6086 15.19377378615154"
      },
      "geometry": {
        "type": "Point",
        "coordinates": [
          -115.8948694806162,
          32.1855105835982
        ]
      }
    },
    {
      "type": "Feature",
      "properties": {
        "norad_id": 40310,
        "name": "YAOGAN-24",
        "group": "resource",
        "lat": -78.61389361559235,
        "lon": 159.6514136720366,
        "alt_km": 655.3494309015196,
        "timestamp": "2025-12-09T09:46:47.304193+00:00",
        "meta_object_name": "YAOGAN-24",
        "meta_object_id": "2014-072A",
        "meta_epoch": "2025-12-09T05:16:16.851072",
        "meta_mean_motion": 14.76165926,
        "meta_eccentricity": 0.0014576,
        "meta_inclination": 98.1225,
        "meta_ra_of_asc_node": 114.2941,
        "meta_arg_of_pericenter": 148.6778,
        "meta_mean_anomaly": 211.5303,
        "meta_ephemeris_type": 0,
        "meta_classification_type": "U",
        "meta_norad_cat_id": 40310,
        "meta_element_set_no": 999,
        "meta_rev_at_epoch": 59569,
        "meta_bstar": 0.00023588,
        "meta_mean_motion_dot": 1.58e-05,
        "meta_mean_motion_ddot": 0,
        "tle_line1": "1 40310U 14072A   25343.21963948  .00001580  00000+0  23588-3 0  9993",
        "tle_line2": "2 40310  98.1225 114.2941 0014576 148.6778 211.5303 14.76165926595699"
      },
      "geometry": {
        "type": "Point",
        "coordinates": [
          159.6514136720366,
          -78.61389361559235
        ]
      }
    },
    {
      "type": "Feature",
      "properties": {
        "norad_id": 40336,
        "name": "CBERS 4",
        "group": "resource",
        "lat": 34.10669031209986,
        "lon": -132.7666346364381,
        "alt_km": 770.1708913151742,
        "timestamp": "2025-12-09T09:46:47.304204+00:00",
        "meta_object_name": "CBERS 4",
        "meta_object_id": "2014-079A",
        "meta_epoch": "2025-12-09T04:05:10.951296",
        "meta_mean_motion": 14.35515207,
        "meta_eccentricity": 0.0001557,
        "meta_inclination": 98.331,
        "meta_ra_of_asc_node": 41.3092,
        "meta_arg_of_pericenter": 116.659,
        "meta_mean_anomaly": 243.4755,
        "meta_ephemeris_type": 0,
        "meta_classification_type": "U",
        "meta_norad_cat_id": 40336,
        "meta_element_set_no": 999,
        "meta_rev_at_epoch": 57669,
        "meta_bstar": 3.1279e-05,
        "meta_mean_motion_dot": 4.8e-07,
        "meta_mean_motion_ddot": 0,
        "tle_line1": "1 40336U 14079A   25343.17026564  .00000048  00000+0  31279-4 0  9992",
        "tle_line2": "2 40336  98.3310  41.3092 0001557 116.6590 243.4755 14.35515207576693"
      },
      "geometry": {
        "type": "Point",
        "coordinates": [
          -132.7666346364381,
          34.10669031209986
        ]
      }
    }
  ]
}